MEAN_MOTION;ECCENTRICITY;INCLINATION;RA_OF_ASC_NODE;ARG_OF_PERICENTER;MEAN_ANOMALY;BSTAR;MEAN_MOTION_DOT;MEAN_MOTION_DDOT;TYPE
2.00557626;0.0148601;54.6199;72.3783;78.7296;96.1622;0;1.1E-7;0;Navigation
2.00557652;0.0148614;54.6202;72.3584;78.7324;88.295;0;1.1E-7;0;Navigation
2.0055767;0.0148629;54.6206;72.3372;78.7361;101.8752;0;1.0E-7;0;Navigation
2.0055767;0.0148629;54.6206;72.3372;78.7361;101.8752;0;1.0E-7;0;Navigation
2.00557711;0.0148663;54.6216;72.2871;78.7485;265.876;0;6.0E-8;0;Navigation
2.00557734;0.0148682;54.6221;72.2611;78.7521;5.555;0;2.0E-8;0;Navigation
2.00557733;0.0148694;54.6224;72.2454;78.7555;281.3451;0;-1.0E-8;0;Navigation
2.00557733;0.0148694;54.6224;72.2454;78.7555;281.3451;0;-1.0E-8;0;Navigation
2.00557762;0.014872;54.623;72.2147;78.7604;103.6046;0;-7.0E-8;0;Navigation
2.00557762;0.014872;54.623;72.2147;78.7604;103.6046;0;-7.0E-8;0;Navigation
2.00557821;0.0148752;54.6237;72.1735;78.768;110.4011;0;-1.7E-7;0;Navigation
2.00557821;0.0148752;54.6237;72.1735;78.768;110.4011;0;-1.7E-7;0;Navigation
2.00557883;0.014878;54.6245;72.1321;78.7775;120.6165;0;-2.6E-7;0;Navigation
2.00557923;0.0148805;54.6251;72.1005;78.7831;319.0338;0;-3.2E-7;0;Navigation
2.00558017;0.0148842;54.6261;72.0517;78.7936;100.0866;0;-3.7E-7;0;Navigation
2.00558052;0.0148863;54.6267;72.0208;78.7996;286.6548;0;-3.8E-7;0;Navigation
2.00558052;0.0148863;54.6267;72.0208;78.7996;286.6548;0;-3.8E-7;0;Navigation
2.00558052;0.0148863;54.6267;72.0208;78.7996;286.6548;0;-3.8E-7;0;Navigation
2.00558147;0.0148907;54.6276;71.9714;78.8083;79.0647;0;-3.6E-7;0;Navigation
2.00558147;0.0148907;54.6276;71.9714;78.8083;79.0647;0;-3.6E-7;0;Navigation
2.00558214;0.0148944;54.6284;71.9301;78.817;88.8911;0;-3.2E-7;0;Navigation
2.00558286;0.0148977;54.6291;71.8933;78.8235;19.541;0;-2.7E-7;0;Navigation
2.00558289;0.0148994;54.6294;71.8785;78.8241;280.502;0;-2.5E-7;0;Navigation
2.00558289;0.0148994;54.6294;71.8785;78.8241;280.502;0;-2.5E-7;0;Navigation
2.00558289;0.0148994;54.6294;71.8785;78.8241;280.502;0;-2.5E-7;0;Navigation
2.005584;0.0149067;54.6307;71.8084;78.8394;78.9027;0;-1.7E-7;0;Navigation
2.0055843;0.0149085;54.631;71.7869;78.8445;100.4462;0;-1.6E-7;0;Navigation
2.00558475;0.0149105;54.6314;71.765;78.8499;126.288;0;-1.5E-7;0;Navigation
2.00558475;0.0149105;54.6314;71.765;78.8499;126.288;0;-1.5E-7;0;Navigation
2.00558535;0.0149138;54.6322;71.7237;78.8586;137.4683;0;-1.4E-7;0;Navigation
2.00558535;0.0149138;54.6322;71.7237;78.8586;137.4683;0;-1.4E-7;0;Navigation
2.0055855;0.0149168;54.6329;71.6848;78.8677;105.4002;0;-1.4E-7;0;Navigation
2.00558584;0.01492;54.6336;71.6457;78.8754;76.3413;0;-1.4E-7;0;Navigation
2.00558584;0.01492;54.6336;71.6457;78.8754;76.3413;0;-1.4E-7;0;Navigation
2.00558584;0.01492;54.6336;71.6457;78.8754;76.3413;0;-1.4E-7;0;Navigation
2.00558584;0.01492;54.6336;71.6457;78.8754;76.3413;0;-1.4E-7;0;Navigation
2.00558584;0.01492;54.6336;71.6457;78.8754;76.3413;0;-1.4E-7;0;Navigation
2.00558657;0.0149322;54.636;71.5122;78.9022;279.4773;0;-1.4E-7;0;Navigation
2.00558669;0.0149335;54.6361;71.5024;78.9047;92.1502;0;-1.3E-7;0;Navigation
2.00558669;0.0149335;54.6361;71.5024;78.9047;92.1502;0;-1.3E-7;0;Navigation
2.0055869;0.0149408;54.6376;71.4206;78.9234;99.5084;0;-8.0E-8;0;Navigation
2.0055869;0.0149408;54.6376;71.4206;78.9234;99.5084;0;-8.0E-8;0;Navigation
2.00558695;0.0149427;54.638;71.3983;78.9282;133.9077;0;-6.0E-8;0;Navigation
2.00558706;0.0149457;54.6387;71.3599;78.9373;93.4728;0;-3.0E-8;0;Navigation
2.00558763;0.0149496;54.6394;71.3177;78.9478;118.7467;0;0;0;Navigation
2.00558732;0.0149511;54.6395;71.3157;78.9461;154.3525;0;0;0;Navigation
2.00558739;0.0149537;54.64;71.288;78.9526;284.7348;0;2.0E-8;0;Navigation
2.00558763;0.0149593;54.6409;71.2356;78.9618;130.7514;0;2.0E-8;0;Navigation
2.00558782;0.0149613;54.6413;71.2137;78.9679;157.9936;0;1.0E-8;0;Navigation
2.00558827;0.0149662;54.6422;71.1576;78.9836;68.022;0;-6.0E-8;0;Navigation
2.00558827;0.0149662;54.6422;71.1576;78.9836;68.022;0;-6.0E-8;0;Navigation
2.0055893;0.0149743;54.6437;71.0746;79.0096;95.1078;0;-2.4E-7;0;Navigation
2.0055893;0.0149743;54.6437;71.0746;79.0096;95.1078;0;-2.4E-7;0;Navigation
2.00558941;0.014975;54.6439;71.0638;79.0148;285.0502;0;-2.7E-7;0;Navigation
2.00558952;0.0149807;54.6444;71.0314;79.0238;138.7476;0;-3.5E-7;0;Navigation
2.00559021;0.0149852;54.6452;70.99;79.0367;149.3541;0;-4.4E-7;0;Navigation
2.00559065;0.0149883;54.6458;70.9566;79.046;20.1193;0;-4.9E-7;0;Navigation
2.00559167;0.0149912;54.6464;70.9214;79.0568;283.7823;0;-5.2E-7;0;Navigation
2.00559247;0.0149989;54.6473;70.8661;79.0735;180.6371;0;-5.2E-7;0;Navigation
2.00559257;0.0150023;54.648;70.8281;79.0861;133.3152;0;-4.9E-7;0;Navigation
2.00559323;0.015007;54.6487;70.786;79.0995;157.8624;0;-4.5E-7;0;Navigation
2.00559323;0.015007;54.6487;70.786;79.0995;157.8624;0;-4.5E-7;0;Navigation
2.00559359;0.0150113;54.6494;70.7486;79.1116;98.5329;0;-4.1E-7;0;Navigation
2.00559399;0.0150108;54.6494;70.7446;79.1128;169.5587;0;-4.1E-7;0;Navigation
2.00559399;0.0150108;54.6494;70.7446;79.1128;169.5587;0;-4.1E-7;0;Navigation
2.00559476;0.0150178;54.6504;70.6876;79.1318;97.6368;0;-3.6E-7;0;Navigation
2.00559582;0.0150237;54.6514;70.6232;79.153;155.8389;0;-3.4E-7;0;Navigation
2.00559605;0.0150259;54.6518;70.6015;79.1592;180.5113;0;-3.5E-7;0;Navigation
2.00559665;0.0150307;54.6527;70.5452;79.1755;95.6105;0;-3.6E-7;0;Navigation
2.00559676;0.0150357;54.6534;70.5045;79.1866;97.1909;0;-3.7E-7;0;Navigation
2.00559676;0.0150357;54.6534;70.5045;79.1866;97.1909;0;-3.7E-7;0;Navigation
2.0055973;0.0150453;54.6548;70.4224;79.2113;109.7551;0;-3.8E-7;0;Navigation
2.00559731;0.0150477;54.6552;70.4002;79.2183;142.4752;0;-3.7E-7;0;Navigation
2.0055976;0.0150522;54.6558;70.359;79.2322;151.4471;0;-3.5E-7;0;Navigation
2.0055976;0.0150522;54.6558;70.359;79.2322;151.4471;0;-3.5E-7;0;Navigation
2.00559741;0.0150557;54.6565;70.3212;79.2452;99.9614;0;-3.3E-7;0;Navigation
2.00559775;0.0150581;54.6568;70.2986;79.2532;141.6753;0;-3.1E-7;0;Navigation
2.00559794;0.0150622;54.6575;70.2593;79.266;116.7508;0;-2.8E-7;0;Navigation
2.0055979;0.0150652;54.6579;70.2351;79.2742;184.0271;0;-2.6E-7;0;Navigation
2.00559791;0.0150698;54.6585;70.1937;79.2887;195.7281;0;-2.3E-7;0;Navigation
2.0055982;0.0150759;54.6594;70.1374;79.3074;111.4521;0;-2.2E-7;0;Navigation
2.00559862;0.0150792;54.6601;70.0972;79.3213;101.8668;0;-2.3E-7;0;Navigation
2.00559876;0.015085;54.6608;70.0531;79.339;161.8049;0;-2.9E-7;0;Navigation
2.0055992;0.0150894;54.6614;70.0158;79.3533;100.8079;0;-3.5E-7;0;Navigation
2.00559941;0.0150933;54.6618;69.992;79.3644;161.0709;0;-4.1E-7;0;Navigation
2.00559978;0.015098;54.6626;69.9412;79.3844;339.8158;0;-5.3E-7;0;Navigation
2.00559985;0.0150998;54.6627;69.9338;79.3858;109.2916;0;-5.5E-7;0;Navigation
2.00560037;0.0151046;54.6634;69.8928;79.4037;115.2547;0;-6.5E-7;0;Navigation
2.00560089;0.015108;54.664;69.8521;79.4195;112.9612;0;-7.2E-7;0;Navigation
2.00560089;0.015108;54.664;69.8521;79.4195;112.9612;0;-7.2E-7;0;Navigation
2.00560089;0.015108;54.664;69.8521;79.4195;112.9612;0;-7.2E-7;0;Navigation
2.00560287;0.0151213;54.666;69.7307;79.4694;100.8408;0;-7.5E-7;0;Navigation
2.00560287;0.0151213;54.666;69.7307;79.4694;100.8408;0;-7.5E-7;0;Navigation
2.0056036;0.0151254;54.6668;69.6862;79.4871;166.5619;0;-7.1E-7;0;Navigation
2.00560425;0.0151307;54.6674;69.6482;79.5043;118.7019;0;-6.8E-7;0;Navigation
2.00560471;0.0151347;54.6679;69.6132;79.518;19.1654;0;-6.4E-7;0;Navigation
2.0056052;0.0151393;54.6687;69.5671;79.5385;113.8012;0;-6.1E-7;0;Navigation
2.00560588;0.0151437;54.6694;69.5236;79.556;164.5346;0;-6.0E-7;0;Navigation
2.00560612;0.0151478;54.67;69.4857;79.5708;115.1623;0;-6.0E-7;0;Navigation
2.00560665;0.0151524;54.6706;69.4437;79.5859;137.5196;0;-6.1E-7;0;Navigation
2.00560685;0.0151575;54.6712;69.4074;79.6013;59.0313;0;-6.2E-7;0;Navigation
2.00560683;0.0151588;54.6714;69.3936;79.6074;302.5229;0;-6.3E-7;0;Navigation
2.00560725;0.0151629;54.6719;69.3635;79.622;114.7577;0;-6.3E-7;0;Navigation
2.00560725;0.0151629;54.6719;69.3635;79.622;114.7577;0;-6.3E-7;0;Navigation
2.00560753;0.0151724;54.6732;69.2821;79.6552;113.2359;0;-6.1E-7;0;Navigation
2.00560759;0.0151747;54.6735;69.2627;79.6636;96.6026;0;-6.0E-7;0;Navigation
2.00560759;0.0151747;54.6735;69.2627;79.6636;96.6026;0;-6.0E-7;0;Navigation
2.00560759;0.0151747;54.6735;69.2627;79.6636;96.6026;0;-6.0E-7;0;Navigation
2.00560778;0.0151839;54.6748;69.1811;79.7005;99.352;0;-5.3E-7;0;Navigation
2.00560778;0.0151839;54.6748;69.1811;79.7005;99.352;0;-5.3E-7;0;Navigation
2.00560778;0.0151839;54.6748;69.1811;79.7005;99.352;0;-5.3E-7;0;Navigation
2.00560804;0.0151924;54.6761;69.0998;79.736;96.1336;0;-4.6E-7;0;Navigation
2.00560804;0.0151924;54.6761;69.0998;79.736;96.1336;0;-4.6E-7;0;Navigation
2.00560804;0.0151996;54.6771;69.039;79.7671;91.2492;0;-4.2E-7;0;Navigation
2.00560823;0.0152021;54.6778;68.9978;79.782;98.8361;0;-4.2E-7;0;Navigation
2.00560823;0.0152021;54.6778;68.9978;79.782;98.8361;0;-4.2E-7;0;Navigation
2.00560867;0.0152094;54.679;68.9214;79.8168;9.8881;0;-5.0E-7;0;Navigation
2.00560867;0.0152094;54.679;68.9214;79.8168;9.8881;0;-5.0E-7;0;Navigation
2.00560936;0.0152179;54.6805;68.8338;79.8583;115.7741;0;-6.9E-7;0;Navigation
2.00560989;0.0152227;54.6811;68.7945;79.8799;89.9689;0;-7.8E-7;0;Navigation
2.00560989;0.0152227;54.6811;68.7945;79.8799;89.9689;0;-7.8E-7;0;Navigation
2.00561085;0.0152312;54.6825;68.7127;79.9234;95.2634;0;-9.0E-7;0;Navigation
2.00561085;0.0152312;54.6825;68.7127;79.9234;95.2634;0;-9.0E-7;0;Navigation
2.0056114;0.0152346;54.6831;68.6718;79.9414;97.5376;0;-9.2E-7;0;Navigation
2.00561202;0.0152388;54.6837;68.631;79.9631;98.18;0;-9.1E-7;0;Navigation
2.00561271;0.0152434;54.6844;68.5902;79.984;98.553;0;-8.7E-7;0;Navigation
2.0056133;0.0152478;54.6851;68.5493;80.0047;101.0855;0;-8.3E-7;0;Navigation
2.00561382;0.0152469;54.6858;68.5085;80.0376;102.4373;0;-7.8E-7;0;Navigation
2.00561382;0.0152469;54.6858;68.5085;80.0376;102.4373;0;-7.8E-7;0;Navigation
2.00561486;0.0152629;54.6872;68.4267;80.0624;109.9717;0;-7.3E-7;0;Navigation
